STARLINK-32536          
1 61925U 24207P   26068.93435982  .00027970  00000+0  10205-2 0  9997
2 61925  43.0003 284.3214 0001924 274.1329  85.9303 15.27629720 74711
HERMES-3                
1 63835U 25052BR  26068.93751242  .00020316  00000+0  69958-3 0  9995
2 63835  97.3987 324.6131 0007993 112.9583 247.2502 15.30039785 54863
